start=new Date('2022-02-15T00:00:00.000Z').valueOf();
sats=[{"TIME_SYSTEM":"UTC","COUNTRY_CODE":"US","EPHEMERIS_TYPE":"0","EPOCH":"2022-02-14T13:49:05.760768","MEAN_ANOMALY":"285.0619","CLASSIFICATION_TYPE":"U","NORAD_CAT_ID":"47150","INCLINATION":"53.0530","MEAN_ELEMENT_THEORY":"SGP4","ARG_OF_PERICENTER":"75.0533","ELEMENT_SET_NO":"999","APOAPSIS":"548.233","SITE":"AFETR","REF_FRAME":"TEME","MEAN_MOTION":"15.06399811","DECAY_DATE":null,"RA_OF_ASC_NODE":"114.0640","GP_ID":"195967018","TLE_LINE2":"2 47150  53.0530 114.0640 0001471  75.0533 285.0619 15.06399811 68296","MEAN_MOTION_DDOT":"0.0000000000000","SEMIMAJOR_AXIS":"6925.349","PERIOD":"95.592","CENTER_NAME":"EARTH","OBJECT_TYPE":"PAYLOAD","OBJECT_NAME":"STARLINK-1863","FILE":"3300727","BSTAR":"0.00021494000000","RCS_SIZE":"LARGE","OBJECT_ID":"2020-088AE","ECCENTRICITY":"0.00014710","MEAN_MOTION_DOT":"0.00002921","PERIAPSIS":"546.195","TLE_LINE1":"1 47150U 20088AE  22045.57576112  .00002921  00000-0  21494-3 0  9999","LAUNCH_DATE":"2020-11-25","REV_AT_EPOCH":"6829"},{"ELEMENT_SET_NO":"999","ARG_OF_PERICENTER":"64.6716","MEAN_ELEMENT_THEORY":"SGP4","INCLINATION":"53.0543","TLE_LINE2":"2 47151  53.0543 124.3723 0001383  64.6716 295.4416 15.06382603 68130","RA_OF_ASC_NODE":"124.3723","GP_ID":"195967268","DECAY_DATE":null,"MEAN_MOTION":"15.06382603","REF_FRAME":"TEME","SITE":"AFETR","APOAPSIS":"548.225","MEAN_ANOMALY":"295.4416","EPOCH":"2022-02-14T12:12:15.327936","TIME_SYSTEM":"UTC","COUNTRY_CODE":"US","EPHEMERIS_TYPE":"0","NORAD_CAT_ID":"47151","CLASSIFICATION_TYPE":"U","ECCENTRICITY":"0.00013830","OBJECT_ID":"2020-088AF","RCS_SIZE":"LARGE","REV_AT_EPOCH":"6813","LAUNCH_DATE":"2020-11-25","TLE_LINE1":"1 47151U 20088AF  22045.50851074  .00001215  00000-0  10049-3 0  9995","PERIAPSIS":"546.309","MEAN_MOTION_DOT":"0.00001215","FILE":"3300727","OBJECT_NAME":"STARLINK-1864","CENTER_NAME":"EARTH","OBJECT_TYPE":"PAYLOAD","PERIOD":"95.593","SEMIMAJOR_AXIS":"6925.402","MEAN_MOTION_DDOT":"0.0000000000000","BSTAR":"0.00010049000000"},{"ARG_OF_PERICENTER":"69.9950","MEAN_ELEMENT_THEORY":"SGP4","INCLINATION":"53.0543","ELEMENT_SET_NO":"999","REF_FRAME":"TEME","MEAN_MOTION":"15.06394926","SITE":"AFETR","APOAPSIS":"548.124","TLE_LINE2":"2 47152  53.0543 123.5531 0001292  69.9950 290.1178 15.06394926 68167","RA_OF_ASC_NODE":"123.5531","GP_ID":"195966018","DECAY_DATE":null,"MEAN_ANOMALY":"290.1178","EPOCH":"2022-02-14T16:37:38.053056","COUNTRY_CODE":"US","EPHEMERIS_TYPE":"0","TIME_SYSTEM":"UTC","CLASSIFICATION_TYPE":"U","NORAD_CAT_ID":"47152","ECCENTRICITY":"0.00012920","OBJECT_ID":"2020-088AG","RCS_SIZE":"LARGE","PERIAPSIS":"546.334","MEAN_MOTION_DOT":"0.00002521","LAUNCH_DATE":"2020-11-25","REV_AT_EPOCH":"6816","TLE_LINE1":"1 47152U 20088AG  22045.69280154  .00002521  00000-0  18811-3 0  9997","OBJECT_TYPE":"PAYLOAD","CENTER_NAME":"EARTH","PERIOD":"95.592","SEMIMAJOR_AXIS":"6925.364","MEAN_MOTION_DDOT":"0.0000000000000","FILE":"3300727","OBJECT_NAME":"STARLINK-1866","BSTAR":"0.00018811000000"},{"ELEMENT_SET_NO":"999","INCLINATION":"53.0538","MEAN_ELEMENT_THEORY":"SGP4","ARG_OF_PERICENTER":"70.7364","DECAY_DATE":null,"GP_ID":"195966268","RA_OF_ASC_NODE":"128.9517","TLE_LINE2":"2 47153  53.0538 128.9517 0001298  70.7364 289.3765 15.06396529 68084","APOAPSIS":"548.123","SITE":"AFETR","MEAN_MOTION":"15.06396529","REF_FRAME":"TEME","COUNTRY_CODE":"US","TIME_SYSTEM":"UTC","EPHEMERIS_TYPE":"0","EPOCH":"2022-02-14T14:25:34.076640","MEAN_ANOMALY":"289.3765","NORAD_CAT_ID":"47153","CLASSIFICATION_TYPE":"U","RCS_SIZE":"LARGE","OBJECT_ID":"2020-088AH","ECCENTRICITY":"0.00012980","TLE_LINE1":"1 47153U 20088AH  22045.60108885  .00000264  00000-0  36650-4 0  9993","LAUNCH_DATE":"2020-11-25","REV_AT_EPOCH":"6808","MEAN_MOTION_DOT":"0.00000264","PERIAPSIS":"546.325","OBJECT_NAME":"STARLINK-1867","FILE":"3300727","MEAN_MOTION_DDOT":"0.0000000000000","PERIOD":"95.592","SEMIMAJOR_AXIS":"6925.359","CENTER_NAME":"EARTH","OBJECT_TYPE":"PAYLOAD","BSTAR":"0.00003665000000"},{"DECAY_DATE":null,"RA_OF_ASC_NODE":"114.2625","GP_ID":"195936534","TLE_LINE2":"2 47154  53.0537 114.2625 0001484  72.5665 287.5486 15.06401638 68283","APOAPSIS":"548.236","SITE":"AFETR","REF_FRAME":"TEME","MEAN_MOTION":"15.06401638","ELEMENT_SET_NO":"999","INCLINATION":"53.0537","MEAN_ELEMENT_THEORY":"SGP4","ARG_OF_PERICENTER":"72.5665","NORAD_CAT_ID":"47154","CLASSIFICATION_TYPE":"U","COUNTRY_CODE":"US","TIME_SYSTEM":"UTC","EPHEMERIS_TYPE":"0","EPOCH":"2022-02-14T12:45:24.071040","MEAN_ANOMALY":"287.5486","TLE_LINE1":"1 47154U 20088AJ  22045.53152860 -.00000910  00000-0 -42179-4 0  9991","LAUNCH_DATE":"2020-11-25","REV_AT_EPOCH":"6828","MEAN_MOTION_DOT":"-0.00000910","PERIAPSIS":"546.181","RCS_SIZE":"LARGE","OBJECT_ID":"2020-088AJ","ECCENTRICITY":"0.00014840","BSTAR":"-0.00004217900000","OBJECT_NAME":"STARLINK-1868","FILE":"3300472","MEAN_MOTION_DDOT":"0.0000000000000","PERIOD":"95.592","SEMIMAJOR_AXIS":"6925.344","CENTER_NAME":"EARTH","OBJECT_TYPE":"PAYLOAD"},{"MEAN_MOTION_DDOT":"0.0000000000000","PERIOD":"95.593","SEMIMAJOR_AXIS":"6925.387","CENTER_NAME":"EARTH","OBJECT_TYPE":"PAYLOAD","OBJECT_NAME":"STARLINK-1869","FILE":"3300472","BSTAR":"0.00030501000000","RCS_SIZE":"LARGE","OBJECT_ID":"2020-088AK","ECCENTRICITY":"0.00017900","MEAN_MOTION_DOT":"0.00004263","PERIAPSIS":"546.012","TLE_LINE1":"1 47155U 20088AK  22045.56654812  .00004263  00000-0  30501-3 0  9997","REV_AT_EPOCH":"6800","LAUNCH_DATE":"2020-11-25","EPHEMERIS_TYPE":"0","COUNTRY_CODE":"US","TIME_SYSTEM":"UTC","EPOCH":"2022-02-14T13:35:49.757568","MEAN_ANOMALY":"307.4056","CLASSIFICATION_TYPE":"U","NORAD_CAT_ID":"47155","INCLINATION":"53.0555","MEAN_ELEMENT_THEORY":"SGP4","ARG_OF_PERICENTER":"52.7096","ELEMENT_SET_NO":"999","APOAPSIS":"548.491","SITE":"AFETR","MEAN_MOTION":"15.06387610","REF_FRAME":"TEME","DECAY_DATE":null,"GP_ID":"195937286","RA_OF_ASC_NODE":"134.0963","TLE_LINE2":"2 47155  53.0555 134.0963 0001790  52.7096 307.4056 15.06387610 68005"},{"OBJECT_NAME":"STARLINK-1870","FILE":"3300727","MEAN_MOTION_DDOT":"0.0000000000000","CENTER_NAME":"EARTH","OBJECT_TYPE":"PAYLOAD","SEMIMAJOR_AXIS":"6705.360","PERIOD":"91.074","BSTAR":"0.00000414150000","OBJECT_ID":"2020-088AL","RCS_SIZE":"LARGE","ECCENTRICITY":"0.00074880","TLE_LINE1":"1 47156U 20088AL  22045.62205575  .00000113  00000-0  41415-5 0  9991","REV_AT_EPOCH":"6973","LAUNCH_DATE":"2020-11-25","MEAN_MOTION_DOT":"0.00000113","PERIAPSIS":"322.204","EPOCH":"2022-02-14T14:55:45.616800","COUNTRY_CODE":"US","EPHEMERIS_TYPE":"0","TIME_SYSTEM":"UTC","MEAN_ANOMALY":"83.8369","NORAD_CAT_ID":"47156","CLASSIFICATION_TYPE":"U","ELEMENT_SET_NO":"999","MEAN_ELEMENT_THEORY":"SGP4","INCLINATION":"53.0553","ARG_OF_PERICENTER":"276.1799","DECAY_DATE":null,"TLE_LINE2":"2 47156  53.0553  12.0944 0007488 276.1799  83.8369 15.81137573 69737","RA_OF_ASC_NODE":"12.0944","GP_ID":"195966519","SITE":"AFETR","APOAPSIS":"332.245","REF_FRAME":"TEME","MEAN_MOTION":"15.81137573"},{"COUNTRY_CODE":"US","EPHEMERIS_TYPE":"0","TIME_SYSTEM":"UTC","EPOCH":"2022-02-14T16:05:46.596480","MEAN_ANOMALY":"301.8972","CLASSIFICATION_TYPE":"U","NORAD_CAT_ID":"47157","INCLINATION":"53.0531","MEAN_ELEMENT_THEORY":"SGP4","ARG_OF_PERICENTER":"58.2162","ELEMENT_SET_NO":"999","APOAPSIS":"548.247","SITE":"AFETR","MEAN_MOTION":"15.06400294","REF_FRAME":"TEME","DECAY_DATE":null,"GP_ID":"195966769","RA_OF_ASC_NODE":"123.6300","TLE_LINE2":"2 47157  53.0531 123.6300 0001494  58.2162 301.8972 15.06400294 68162","MEAN_MOTION_DDOT":"0.0000000000000","PERIOD":"95.592","SEMIMAJOR_AXIS":"6925.348","OBJECT_TYPE":"PAYLOAD","CENTER_NAME":"EARTH","OBJECT_NAME":"STARLINK-1871","FILE":"3300727","BSTAR":"0.00014147000000","RCS_SIZE":"LARGE","OBJECT_ID":"2020-088AM","ECCENTRICITY":"0.00014940","MEAN_MOTION_DOT":"0.00001826","PERIAPSIS":"546.178","TLE_LINE1":"1 47157U 20088AM  22045.67067820  .00001826  00000-0  14147-3 0  9998","LAUNCH_DATE":"2020-11-25","REV_AT_EPOCH":"6816"},{"FILE":"3300727","OBJECT_NAME":"STARLINK-1873","PERIOD":"95.592","SEMIMAJOR_AXIS":"6925.366","OBJECT_TYPE":"PAYLOAD","CENTER_NAME":"EARTH","MEAN_MOTION_DDOT":"0.0000000000000","BSTAR":"0.00030451000000","ECCENTRICITY":"0.00014120","RCS_SIZE":"LARGE","OBJECT_ID":"2020-088AN","LAUNCH_DATE":"2020-11-25","REV_AT_EPOCH":"6829","TLE_LINE1":"1 47158U 20088AN  22045.62737218  .00004256  00000-0  30451-3 0  9995","PERIAPSIS":"546.253","MEAN_MOTION_DOT":"0.00004256","MEAN_ANOMALY":"303.2148","EPHEMERIS_TYPE":"0","COUNTRY_CODE":"US","TIME_SYSTEM":"UTC","EPOCH":"2022-02-14T15:03:24.956352","NORAD_CAT_ID":"47158","CLASSIFICATION_TYPE":"U","ELEMENT_SET_NO":"999","ARG_OF_PERICENTER":"56.8977","INCLINATION":"53.0547","MEAN_ELEMENT_THEORY":"SGP4","RA_OF_ASC_NODE":"113.8231","GP_ID":"195967019","TLE_LINE2":"2 47158  53.0547 113.8231 0001412  56.8977 303.2148 15.06394362 68295","DECAY_DATE":null,"REF_FRAME":"TEME","MEAN_MOTION":"15.06394362","APOAPSIS":"548.209","SITE":"AFETR"},{"MEAN_MOTION_DOT":"0.00196368","PERIAPSIS":"354.225","TLE_LINE1":"1 47159U 20088AP  22045.52946053  .00196368  00000-0  15353-2 0  9993","REV_AT_EPOCH":"6879","LAUNCH_DATE":"2020-11-25","OBJECT_ID":"2020-088AP","RCS_SIZE":"LARGE","ECCENTRICITY":"0.00047940","BSTAR":"0.00153530000000","MEAN_MOTION_DDOT":"0.0000000000000","OBJECT_TYPE":"PAYLOAD","CENTER_NAME":"EARTH","SEMIMAJOR_AXIS":"6735.589","PERIOD":"91.690","OBJECT_NAME":"STARLINK-1874","FILE":"3300620","SITE":"AFETR","APOAPSIS":"360.683","REF_FRAME":"TEME","MEAN_MOTION":"15.70505297","DECAY_DATE":null,"TLE_LINE2":"2 47159  53.0534  95.6687 0004794 303.8525  56.2035 15.70505297 68791","RA_OF_ASC_NODE":"95.6687","GP_ID":"195942915","MEAN_ELEMENT_THEORY":"SGP4","INCLINATION":"53.0534","ARG_OF_PERICENTER":"303.8525","ELEMENT_SET_NO":"999","CLASSIFICATION_TYPE":"U","NORAD_CAT_ID":"47159","EPOCH":"2022-02-14T12:42:25.389792","EPHEMERIS_TYPE":"0","COUNTRY_CODE":"US","TIME_SYSTEM":"UTC","MEAN_ANOMALY":"56.2035"}];
